{"type": "FeatureCollection", "features": [{"type": "Feature", "properties": {"norad_id": 24946, "name": "IRIDIUM 33", "group": "iridium-33-debris", "lat": -46.261139625277046, "lon": 66.26803907763887, "alt_km": 782.3668966962878, "timestamp": "2025-12-08T08:59:01.151129+00:00", "meta": {"OBJECT_NAME": "IRIDIUM 33", "OBJECT_ID": "1997-051C", "EPOCH": "2025-12-07T23:09:30.826368", "MEAN_MOTION": 14.35031792, "ECCENTRICITY": 0.00065204, "INCLINATION": 86.387, "RA_OF_ASC_NODE": 70.2257, "ARG_OF_PERICENTER": 218.2008, "MEAN_ANOMALY": 141.8727, "EPHEMERIS_TYPE": 0, "CLASSIFICATION_TYPE": "U", "NORAD_CAT_ID": 24946, "ELEMENT_SET_NO": 999, "REV_AT_EPOCH": 47766, "BSTAR": 0.00020031832, "MEAN_MOTION_DOT": 5.9e-06, "MEAN_MOTION_DDOT": 0}, "tle": {"line1": "1 24946U 97051C   25341.96494012  .00000590  00000+0  20032-3 0  9990", "line2": "2 24946  86.3870  70.2257 0006520 218.2008 141.8727 14.35031792477661"}}, "geometry": {"type": "Point", "coordinates": [66.26803907763887, -46.261139625277046]}}, {"type": "Feature", "properties": {"norad_id": 33773, "name": "IRIDIUM 33 DEB", "group": "iridium-33-debris", "lat": 38.139083487902994, "lon": -120.39281231873699, "alt_km": 736.8979083986414, "timestamp": "2025-12-08T08:59:01.151162+00:00", "meta": {"OBJECT_NAME": "IRIDIUM 33 DEB", "OBJECT_ID": "1997-051L", "EPOCH": "2025-12-07T17:21:12.573216", "MEAN_MOTION": 14.43241483, "ECCENTRICITY": 0.00120237, "INCLINATION": 86.4015, "RA_OF_ASC_NODE": 62.7153, "ARG_OF_PERICENTER": 161.443, "MEAN_ANOMALY": 198.7212, "EPHEMERIS_TYPE": 0, "CLASSIFICATION_TYPE": "U", "NORAD_CAT_ID": 33773, "ELEMENT_SET_NO": 999, "REV_AT_EPOCH": 88275, "BSTAR": 0.00062122502, "MEAN_MOTION_DOT": 2.11e-05, "MEAN_MOTION_DDOT": 0}, "tle": {"line1": "1 33773U 97051L   25341.72306219  .00002110  00000+0  62123-3 0  9990", "line2": "2 33773  86.4015  62.7153 0012023 161.4430 198.7212 14.43241483882754"}}, "geometry": {"type": "Point", "coordinates": [-120.39281231873699, 38.139083487902994]}}, {"type": "Feature", "properties": {"norad_id": 33775, "name": "IRIDIUM 33 DEB", "group": "iridium-33-debris", "lat": -73.09533028333107, "lon": -116.50596513710664, "alt_km": 760.282592180597, "timestamp": "2025-12-08T08:59:01.151178+00:00", "meta": {"OBJECT_NAME": "IRIDIUM 33 DEB", "OBJECT_ID": "1997-051N", "EPOCH": "2025-12-07T22:38:03.370848", "MEAN_MOTION": 14.41452411, "ECCENTRICITY": 0.00137836, "INCLINATION": 86.3641, "RA_OF_ASC_NODE": 51.6013, "ARG_OF_PERICENTER": 169.5505, "MEAN_ANOMALY": 7.4355, "EPHEMERIS_TYPE": 0, "CLASSIFICATION_TYPE": "U", "NORAD_CAT_ID": 33775, "ELEMENT_SET_NO": 999, "REV_AT_EPOCH": 88071, "BSTAR": 0.00051363714, "MEAN_MOTION_DOT": 1.687e-05, "MEAN_MOTION_DDOT": 0}, "tle": {"line1": "1 33775U 97051N   25341.94309457  .00001687  00000+0  51364-3 0  9996", "line2": "2 33775  86.3641  51.6013 0013783 169.5505   7.4355 14.41452411880719"}}, "geometry": {"type": "Point", "coordinates": [-116.50596513710664, -73.09533028333107]}}, {"type": "Feature", "properties": {"norad_id": 33776, "name": "IRIDIUM 33 DEB", "group": "iridium-33-debris", "lat": 6.244422625446724, "lon": -97.78545915605773, "alt_km": 758.194271011077, "timestamp": "2025-12-08T08:59:01.151191+00:00", "meta": {"OBJECT_NAME": "IRIDIUM 33 DEB", "OBJECT_ID": "1997-051P", "EPOCH": "2025-12-07T19:21:28.874016", "MEAN_MOTION": 14.38221316, "ECCENTRICITY": 0.00137825, "INCLINATION": 86.4037, "RA_OF_ASC_NODE": 82.8472, "ARG_OF_PERICENTER": 207.1216, "MEAN_ANOMALY": 268.948, "EPHEMERIS_TYPE": 0, "CLASSIFICATION_TYPE": "U", "NORAD_CAT_ID": 33776, "ELEMENT_SET_NO": 999, "REV_AT_EPOCH": 88011, "BSTAR": 0.00060401698, "MEAN_MOTION_DOT": 1.855e-05, "MEAN_MOTION_DDOT": 0}, "tle": {"line1": "1 33776U 97051P   25341.80658419  .00001855  00000+0  60402-3 0  9997", "line2": "2 33776  86.4037  82.8472 0013782 207.1216 268.9480 14.38221316880113"}}, "geometry": {"type": "Point", "coordinates": [-97.78545915605773, 6.244422625446724]}}, {"type": "Feature", "properties": {"norad_id": 33777, "name": "IRIDIUM 33 DEB", "group": "iridium-33-debris", "lat": 48.81705535423951, "lon": 41.253478114992475, "alt_km": 705.9400187504598, "timestamp": "2025-12-08T08:59:01.151204+00:00", "meta": {"OBJECT_NAME": "IRIDIUM 33 DEB", "OBJECT_ID": "1997-051Q", "EPOCH": "2025-12-07T21:12:36.232416", "MEAN_MOTION": 14.55558752, "ECCENTRICITY": 0.00051039, "INCLINATION": 86.3785, "RA_OF_ASC_NODE": 37.3156, "ARG_OF_PERICENTER": 272.0634, "MEAN_ANOMALY": 87.9989, "EPHEMERIS_TYPE": 0, "CLASSIFICATION_TYPE": "U", "NORAD_CAT_ID": 33777, "ELEMENT_SET_NO": 999, "REV_AT_EPOCH": 88463, "BSTAR": 0.0012244585, "MEAN_MOTION_DOT": 5.356e-05, "MEAN_MOTION_DDOT": 0}, "tle": {"line1": "1 33777U 97051Q   25341.88375269  .00005356  00000+0  12245-2 0  9996", "line2": "2 33777  86.3785  37.3156 0005103 272.0634  87.9989 14.55558752884630"}}, "geometry": {"type": "Point", "coordinates": [41.253478114992475, 48.81705535423951]}}, {"type": "Feature", "properties": {"norad_id": 33850, "name": "IRIDIUM 33 DEB", "group": "iridium-33-debris", "lat": -43.626235234915995, "lon": -144.44727145662787, "alt_km": 752.7310995368925, "timestamp": "2025-12-08T08:59:01.151217+00:00", "meta": {"OBJECT_NAME": "IRIDIUM 33 DEB", "OBJECT_ID": "1997-051T", "EPOCH": "2025-12-07T22:30:46.056384", "MEAN_MOTION": 14.42131597, "ECCENTRICITY": 0.00117503, "INCLINATION": 86.3419, "RA_OF_ASC_NODE": 32.2443, "ARG_OF_PERICENTER": 175.9292, "MEAN_ANOMALY": 304.0004, "EPHEMERIS_TYPE": 0, "CLASSIFICATION_TYPE": "U", "NORAD_CAT_ID": 33850, "ELEMENT_SET_NO": 999, "REV_AT_EPOCH": 88083, "BSTAR": 0.00051754302, "MEAN_MOTION_DOT": 1.722e-05, "MEAN_MOTION_DDOT": 0}, "tle": {"line1": "1 33850U 97051T   25341.93803306  .00001722  00000+0  51754-3 0  9994", "line2": "2 33850  86.3419  32.2443 0011750 175.9292 304.0004 14.42131597880834"}}, "geometry": {"type": "Point", "coordinates": [-144.44727145662787, -43.626235234915995]}}, {"type": "Feature", "properties": {"norad_id": 33853, "name": "IRIDIUM 33 DEB", "group": "iridium-33-debris", "lat": -21.194850903998944, "lon": 173.28095641028318, "alt_km": 800.5037910047376, "timestamp": "2025-12-08T08:59:01.151229+00:00", "meta": {"OBJECT_NAME": "IRIDIUM 33 DEB", "OBJECT_ID": "1997-051W", "EPOCH": "2025-12-07T08:17:07.255968", "MEAN_MOTION": 13.99011788, "ECCENTRICITY": 0.0206843, "INCLINATION": 85.9996, "RA_OF_ASC_NODE": 352.177, "ARG_OF_PERICENTER": 252.5093, "MEAN_ANOMALY": 170.527, "EPHEMERIS_TYPE": 0, "CLASSIFICATION_TYPE": "U", "NORAD_CAT_ID": 33853, "ELEMENT_SET_NO": 999, "REV_AT_EPOCH": 85270, "BSTAR": 0.0032855216, "MEAN_MOTION_DOT": 5.719e-05, "MEAN_MOTION_DDOT": 0}, "tle": {"line1": "1 33853U 97051W   25341.34522287  .00005719  00000+0  32855-2 0  9998", "line2": "2 33853  85.9996 352.1770 0206843 252.5093 170.5270 13.99011788852705"}}, "geometry": {"type": "Point", "coordinates": [173.28095641028318, -21.194850903998944]}}, {"type": "Feature", "properties": {"norad_id": 33860, "name": "IRIDIUM 33 DEB", "group": "iridium-33-debris", "lat": 57.449739836681076, "lon": -156.51559917233124, "alt_km": 666.2470316043427, "timestamp": "2025-12-08T08:59:01.151241+00:00", "meta": {"OBJECT_NAME": "IRIDIUM 33 DEB", "OBJECT_ID": "1997-051AD", "EPOCH": "2025-12-07T21:48:56.589984", "MEAN_MOTION": 14.67272468, "ECCENTRICITY": 0.00080796, "INCLINATION": 86.3838, "RA_OF_ASC_NODE": 29.3762, "ARG_OF_PERICENTER": 14.2776, "MEAN_ANOMALY": 171.5804, "EPHEMERIS_TYPE": 0, "CLASSIFICATION_TYPE": "U", "NORAD_CAT_ID": 33860, "ELEMENT_SET_NO": 999, "REV_AT_EPOCH": 88651, "BSTAR": 0.001579161, "MEAN_MOTION_DOT": 8.93e-05, "MEAN_MOTION_DDOT": 0}, "tle": {"line1": "1 33860U 97051AD  25341.90898831  .00008930  00000+0  15792-2 0  9998", "line2": "2 33860  86.3838  29.3762 0008079  14.2776 171.5804 14.67272468886519"}}, "geometry": {"type": "Point", "coordinates": [-156.51559917233124, 57.449739836681076]}}, {"type": "Feature", "properties": {"norad_id": 33862, "name": "IRIDIUM 33 DEB", "group": "iridium-33-debris", "lat": 54.73765695799835, "lon": -145.64058309959955, "alt_km": 629.4630734029588, "timestamp": "2025-12-08T08:59:01.151253+00:00", "meta": {"OBJECT_NAME": "IRIDIUM 33 DEB", "OBJECT_ID": "1997-051AF", "EPOCH": "2025-12-07T21:45:50.543136", "MEAN_MOTION": 14.69356712, "ECCENTRICITY": 0.00538028, "INCLINATION": 86.4089, "RA_OF_ASC_NODE": 39.6612, "ARG_OF_PERICENTER": 85.3176, "MEAN_ANOMALY": 88.0788, "EPHEMERIS_TYPE": 0, "CLASSIFICATION_TYPE": "U", "NORAD_CAT_ID": 33862, "ELEMENT_SET_NO": 999, "REV_AT_EPOCH": 88752, "BSTAR": 0.0017531602, "MEAN_MOTION_DOT": 0.0001062, "MEAN_MOTION_DDOT": 0}, "tle": {"line1": "1 33862U 97051AF  25341.90683499  .00010620  00000+0  17532-2 0  9995", "line2": "2 33862  86.4089  39.6612 0053802  85.3176  88.0788 14.69356712887527"}}, "geometry": {"type": "Point", "coordinates": [-145.64058309959955, 54.73765695799835]}}, {"type": "Feature", "properties": {"norad_id": 33866, "name": "IRIDIUM 33 DEB", "group": "iridium-33-debris", "lat": 17.35974813188063, "lon": -86.27627157129281, "alt_km": 728.1808559744286, "timestamp": "2025-12-08T08:59:01.151264+00:00", "meta": {"OBJECT_NAME": "IRIDIUM 33 DEB", "OBJECT_ID": "1997-051AK", "EPOCH": "2025-12-07T19:27:58.017024", "MEAN_MOTION": 14.25249491, "ECCENTRICITY": 0.01140775, "INCLINATION": 86.3005, "RA_OF_ASC_NODE": 95.1209, "ARG_OF_PERICENTER": 177.1073, "MEAN_ANOMALY": 337.5988, "EPHEMERIS_TYPE": 0, "CLASSIFICATION_TYPE": "U", "NORAD_CAT_ID": 33866, "ELEMENT_SET_NO": 999, "REV_AT_EPOCH": 86740, "BSTAR": 0.0012512167, "MEAN_MOTION_DOT": 3.167e-05, "MEAN_MOTION_DDOT": 0}, "tle": {"line1": "1 33866U 97051AK  25341.81108816  .00003167  00000+0  12512-2 0  9995", "line2": "2 33866  86.3005  95.1209 0114077 177.1073 337.5988 14.25249491867401"}}, "geometry": {"type": "Point", "coordinates": [-86.27627157129281, 17.35974813188063]}}]}